     2              NAVIGATION DATA                         RINEX VERSION / TYPE
CCRINEXN V1.6.0 UX  CDDIS               28-OCT-21 11:31     PGM / RUN BY / DATE 
IGS BROADCAST EPHEMERIS FILE                                COMMENT             
    0.1676D-07  0.0000D+00 -0.1192D-06  0.5960D-07          ION ALPHA           
    0.1147D+06 -0.1638D+05 -0.3277D+06  0.1311D+06          ION BETA            
    0.186264514923D-08 0.621724893790D-14   503808     2181 DELTA-UTC: A0,A1,T,W
    18                                                      LEAP SECONDS        
                                                            END OF HEADER       
24 21 10 27  2  0  0.0 0.259537715465D-03 0.522959453519D-11 0.000000000000D+00
    0.240000000000D+02 0.123125000000D+02 0.521807449660D-08-0.158882046207D+01
    0.555068254471D-06 0.118406765396D-01 0.729970633984D-05 0.515370098686D+04
    0.266400000000D+06 0.206753611565D-06-0.313517204073D+01-0.987201929092D-07
    0.935080055758D+00 0.220906250000D+03 0.770786834594D+00-0.810105172704D-08
   -0.896465912832D-10 0.100000000000D+01 0.218100000000D+04 0.000000000000D+00
    0.200000000000D+01 0.000000000000D+00 0.232830643654D-08 0.240000000000D+02
    0.259218000000D+06 0.400000000000D+01 0.000000000000D+00 0.000000000000D+00
25 21 10 27  2  0  0.0 0.230872537941D-03 0.602540239925D-11 0.000000000000D+00
    0.630000000000D+02 0.889687500000D+02 0.437768234804D-08 0.283918597147D+01
    0.441633164883D-05 0.993413233664D-02 0.809133052826D-05 0.515376752663D+04
    0.266400000000D+06-0.186264514923D-07-0.201801485138D+01-0.178813934326D-06
    0.959052132142D+00 0.220562500000D+03 0.964165487260D+00-0.776139472182D-08
   -0.151792037033D-09 0.100000000000D+01 0.218100000000D+04 0.000000000000D+00
    0.200000000000D+01 0.000000000000D+00 0.558793544769D-08 0.630000000000D+02
    0.259218000000D+06 0.400000000000D+01 0.000000000000D+00 0.000000000000D+00
26 21 10 27  2  0  0.0 0.149079598486D-03 0.397903932026D-11 0.000000000000D+00
    0.670000000000D+02 0.773125000000D+02 0.500413701382D-08 0.218014059263D+01
    0.407733023167D-05 0.631438079290D-02 0.823289155960D-05 0.515364853478D+04
    0.266400000000D+06-0.197440385819D-06-0.206295178439D+01 0.614672899246D-07
    0.939958605209D+00 0.209843750000D+03 0.302391426811D+00-0.818605526777D-08
   -0.165364030933D-09 0.100000000000D+01 0.218100000000D+04 0.000000000000D+00
    0.200000000000D+01 0.000000000000D+00 0.698491930962D-08 0.670000000000D+02
    0.259218000000D+06 0.400000000000D+01 0.000000000000D+00 0.000000000000D+00
27 21 10 27  2  0  0.0-0.211445149034D-03-0.488853402203D-11 0.000000000000D+00
    0.600000000000D+02 0.458750000000D+02 0.436553898508D-08 0.277645131754D+00
    0.247545540333D-05 0.960101862438D-02 0.388920307159D-05 0.515364860535D+04
    0.266400000000D+06 0.558793544769D-08-0.966985599792D+00 0.949949026108D-07
    0.974459093813D+00 0.308093750000D+03 0.629899079699D+00-0.828070206734D-08
   -0.105718689322D-09 0.100000000000D+01 0.218100000000D+04 0.000000000000D+00
    0.200000000000D+01 0.000000000000D+00 0.186264514923D-08 0.600000000000D+02
    0.259218000000D+06 0.400000000000D+01 0.000000000000D+00 0.000000000000D+00
28 21 10 27  2  0  0.0 0.474840402603D-03-0.727595761418D-11 0.000000000000D+00
    0.590000000000D+02 0.643437500000D+02 0.440161191623D-08 0.789614936986D+00
    0.322796404362D-05 0.174131186213D-01 0.752881169319D-05 0.515371807480D+04
    0.266400000000D+06-0.186264514923D-06-0.192042586261D+01-0.236555933952D-06
    0.970723114103D+00 0.244875000000D+03-0.132197114641D+01-0.819605568433D-08
   -0.871464871438D-10 0.100000000000D+01 0.218100000000D+04 0.000000000000D+00
    0.200000000000D+01 0.630000000000D+02-0.111758700000D-07 0.590000000000D+02
    0.266040000000D+06 0.400000000000D+01 0.000000000000D+00 0.000000000000D+00
30 21 10 27  2  0  0.0-0.486005097628D-03-0.341060513165D-11 0.000000000000D+00
    0.850000000000D+02 0.157187500000D+02 0.517200114889D-08-0.263908475526D+01
    0.720843672752D-06 0.534776761197D-02 0.806897878647D-05 0.515362671280D+04
    0.266400000000D+06-0.447034835815D-07-0.303952727155D+01-0.113621354103D-06
    0.936825451615D+00 0.215218750000D+03-0.273904051580D+01-0.815926843771D-08
   -0.175007289756D-09 0.100000000000D+01 0.218100000000D+04 0.000000000000D+00
    0.200000000000D+01 0.000000000000D+00 0.372529029846D-08 0.850000000000D+02
    0.260558000000D+06 0.400000000000D+01 0.000000000000D+00 0.000000000000D+00
31 21 10 27  2  0  0.0-0.147023238242D-03-0.193267624127D-11 0.000000000000D+00
    0.600000000000D+02 0.161875000000D+02 0.472769692755D-08-0.301468880534D+01
    0.834465026855D-06 0.103059293469D-01 0.838376581669D-05 0.515363221168D+04
    0.266400000000D+06-0.128522515297D-06-0.303671841471D+01-0.104308128357D-06
    0.955915458767D+00 0.217468750000D+03 0.318815472035D+00-0.780103923031D-08
   -0.185007706314D-09 0.100000000000D+01 0.218100000000D+04 0.000000000000D+00
    0.200000000000D+01 0.000000000000D+00-0.130385160446D-07 0.600000000000D+02
    0.259218000000D+06 0.400000000000D+01 0.000000000000D+00 0.000000000000D+00
32 21 10 27  2  0  0.0-0.146562233567D-04-0.432009983342D-11 0.000000000000D+00
    0.530000000000D+02-0.163750000000D+02 0.472162524607D-08 0.102463342423D+01
   -0.942498445511D-06 0.514196662698D-02 0.728853046894D-05 0.515372896004D+04
    0.266400000000D+06-0.372529029846D-07 0.216763638081D+01 0.596046447754D-07
    0.957456489357D+00 0.235812500000D+03-0.238613010970D+01-0.805712132573D-08
    0.183936233111D-09 0.100000000000D+01 0.218100000000D+04 0.000000000000D+00
    0.200000000000D+01 0.000000000000D+00 0.465661287308D-09 0.530000000000D+02
    0.259218000000D+06 0.400000000000D+01 0.000000000000D+00 0.000000000000D+00
23 21 10 27  2 29 36.0 0.402457080781D-04-0.454747350886D-11 0.000000000000D+00
    0.000000000000D+00-0.696875000000D+02 0.416910223127D-08-0.215566406845D+01
   -0.350177288055D-05 0.182224332821D-02 0.885687768459D-05 0.515368325234D+04
    0.268176000000D+06-0.167638063431D-07 0.110047044061D+01 0.186264514923D-07
    0.965783108926D+00 0.211437500000D+03 0.274521778102D+01-0.779175312922D-08
    0.293583657509D-09 0.100000000000D+01 0.218100000000D+04 0.000000000000D+00
    0.200000000000D+01 0.000000000000D+00-0.838190317154D-08 0.256000000000D+03
    0.261018000000D+06 0.400000000000D+01 0.000000000000D+00 0.000000000000D+00
21 21 10 27  3  0  0.0 0.149088911712D-03 0.125055521494D-11 0.000000000000D+00
    0.830000000000D+02-0.670625000000D+02 0.463590738986D-08 0.956125462120D+00
   -0.448897480965D-05 0.241644560592D-01 0.437721610069D-05 0.515362831879D+04
    0.270000000000D+06 0.169500708580D-06 0.392210385137D-02-0.746920704842D-06
    0.958862325836D+00 0.296875000000D+03-0.106705702595D+01-0.843606568171D-08
   -0.124290891500D-09 0.100000000000D+01 0.218100000000D+04 0.000000000000D+00
    0.570000000000D+01 0.000000000000D+00-0.102445483208D-07 0.830000000000D+02
    0.261018000000D+06 0.600000000000D+01 0.000000000000D+00 0.000000000000D+00
 4 21 10 27  3 14 40.0-0.203065574169D-03 0.682121026330D-12 0.000000000000D+00
    0.890000000000D+02-0.133750000000D+02 0.456447584303D-08 0.548004343380D+00
   -0.664964318276D-06 0.146881013643D-02 0.743009150028D-05 0.515367983055D+04
    0.270880000000D+06 0.484287738800D-07 0.220896278666D+01 0.204890966415D-07
    0.960646472930D+00 0.235593750000D+03-0.311703687582D+01-0.793925927345D-08
    0.207865801302D-09 0.100000000000D+01 0.218100000000D+04 0.000000000000D+00
    0.200000000000D+01 0.000000000000D+00-0.419095158577D-08 0.890000000000D+02
    0.263718000000D+06 0.400000000000D+01 0.000000000000D+00 0.000000000000D+00
 6 21 10 27  3 59 44.0 0.103612430394D-03 0.864019966684D-11 0.000000000000D+00
    0.620000000000D+02-0.545625000000D+02 0.392873507616D-08-0.503196916651D+00
   -0.282004475594D-05 0.230935111176D-02 0.520609319210D-05 0.515360460281D+04
    0.273584000000D+06-0.931322574616D-08 0.834662424183D-01-0.111758708954D-07
    0.985603432579D+00 0.293375000000D+03-0.103828988592D+01-0.790782939284D-08
   -0.796461747257D-10 0.100000000000D+01 0.218100000000D+04 0.000000000000D+00
    0.200000000000D+01 0.000000000000D+00 0.419095158577D-08 0.620000000000D+02
    0.266418000000D+06 0.400000000000D+01 0.000000000000D+00 0.000000000000D+00
 8 21 10 27  3 59 44.0-0.416571274400D-04-0.147792889038D-11 0.000000000000D+00
    0.200000000000D+01 0.541250000000D+02 0.452911722734D-08 0.144826498708D+01
    0.297650694847D-05 0.664844678249D-02 0.410340726376D-05 0.515367600822D+04
    0.273584000000D+06 0.838190317154D-07-0.985560983085D+00 0.596046447754D-07
    0.965801243258D+00 0.299968750000D+03 0.527258219336D-01-0.827427322812D-08
   -0.910752222200D-10 0.100000000000D+01 0.218100000000D+04 0.000000000000D+00
    0.200000000000D+01 0.000000000000D+00 0.512227416039D-08 0.200000000000D+01
    0.270048000000D+06 0.400000000000D+01 0.000000000000D+00 0.000000000000D+00
12 21 10 27  3 59 44.0-0.117426272482D-03-0.557065504836D-11 0.000000000000D+00
    0.490000000000D+02 0.791562500000D+02 0.428124975981D-08-0.222472785604D+01
    0.408850610256D-05 0.830221420620D-02 0.726059079170D-05 0.515366286659D+04
    0.273584000000D+06 0.143423676491D-06-0.194266446153D+01 0.000000000000D+00
    0.971610530450D+00 0.245625000000D+03 0.123140021893D+01-0.772996484121D-08
    0.103575742917D-10 0.100000000000D+01 0.218100000000D+04 0.000000000000D+00
    0.200000000000D+01 0.000000000000D+00-0.125728547573D-07 0.490000000000D+02
    0.266418000000D+06 0.400000000000D+01 0.000000000000D+00 0.000000000000D+00
